*******************************************************************************
Ephemeris / WWW_USER Mon Mar 24 06:46:28 2025 Pasadena, USA      / Horizons    
*******************************************************************************
Target body name: Hale-Bopp (C/1995 O1)           {source: JPL#226}
Center body name: Earth (399)                     {source: DE441}
Center-site name: Gemini South Obs., Cerro Pachon
*******************************************************************************
Start time      : A.D. 2018-Sep-03 22:37:00.0000 UT      
Stop  time      : A.D. 2018-Sep-04 10:46:00.0000 UT      
Step-size       : 1 minutes
*******************************************************************************
Target pole/equ : undefined
Target radii    : 30. km                                                       
Center geodetic : 289.2634, -30.2406227, 2.71233  {E-lon(deg),Lat(deg),Alt(km)}
Center cylindric: 289.2634,5517.21435,-3194.81213 {E-lon(deg),Dxy(km),Dz(km)}
Center pole/equ : ITRF93                          {East-longitude positive}
Center radii    : 6378.137, 6378.137, 6356.752 km {Equator_a, b, pole_c}       
Target primary  : Sun
Vis. interferer : MOON (R_eq= 1737.400) km        {source: DE441}
Rel. light bend : Sun                             {source: DE441}
Rel. lght bnd GM: 1.3271E+11 km^3/s^2                                          
Small-body perts: Yes                             {source: SB441-N16}
Atmos refraction: NO (AIRLESS)
RA format       : HMS
Time format     : CAL 
Calendar mode   : Mixed Julian/Gregorian
RTS-only print  : NO       
EOP file        : eop.250321.p250617                                           
EOP coverage    : DATA-BASED 1962-JAN-20 TO 2025-MAR-21. PREDICTS-> 2025-JUN-16
Units conversion: 1 au= 149597870.700 km, c= 299792.458 km/s, 1 day= 86400.0 s 
Table cut-offs 1: Elevation (-90.0deg=NO ),Airmass (>38.000=NO), Daylight (YES)
Table cut-offs 2: Solar elongation (  0.0,180.0=NO ),Local Hour Angle( 0.0=NO )
Table cut-offs 3: RA/DEC angular rate (     0.0=NO )                           
*******************************************************************************
Initial IAU76/J2000 heliocentric ecliptic osculating elements (au, days, deg.):
  EPOCH=  2459837.5 ! 2022-Sep-15.0000000 (TDB)    RMSW= n.a.                  
   EC= .9949810027633206   QR= .890537663547794    TP= 2450537.1349071441      
   OM= 282.7334213961641   W= 130.4146670659176    IN= 89.28759424740302       
  Equivalent ICRF heliocentric cartesian coordinates (au, au/d):
   X= 3.907631452214869E+00  Y=-1.373895334060347E+00  Z=-4.624358508575312E+01
  VX= 3.778244409519935E-04 VY=-5.803173067116371E-04 VZ=-3.255716412104052E-03
Comet physical (GM= km^3/s^2; RAD= km):                                        
   GM= n.a.                RAD= 30.                                            
   M1=  4.8      M2=  n.a.     k1=  4.     k2= n.a.     PHCOF= n.a.            
*******************************************************************************
 Date__(UT)__HR:MN     R.A._________(ICRF)_________DEC
******************************************************
$$SOE
 2018-Sep-03 22:37 C   23 39 50.286355 -86 41 04.22284
 2018-Sep-03 22:38 C   23 39 50.223125 -86 41 04.23781
 2018-Sep-03 22:39 C   23 39 50.159890 -86 41 04.25277
 2018-Sep-03 22:40 C   23 39 50.096651 -86 41 04.26774
 2018-Sep-03 22:41 C   23 39 50.033408 -86 41 04.28270
 2018-Sep-03 22:42 C   23 39 49.970160 -86 41 04.29767
 2018-Sep-03 22:43 C   23 39 49.906908 -86 41 04.31263
 2018-Sep-03 22:44 C   23 39 49.843652 -86 41 04.32759
 2018-Sep-03 22:45 C   23 39 49.780392 -86 41 04.34256
 2018-Sep-03 22:46 C   23 39 49.717127 -86 41 04.35752
 2018-Sep-03 22:47 C   23 39 49.653858 -86 41 04.37249
 2018-Sep-03 22:48 C   23 39 49.590585 -86 41 04.38745
 2018-Sep-03 22:49 C   23 39 49.527307 -86 41 04.40241
 2018-Sep-03 22:50 C   23 39 49.464025 -86 41 04.41738
 2018-Sep-03 22:51 C   23 39 49.400739 -86 41 04.43234
 2018-Sep-03 22:52 C   23 39 49.337448 -86 41 04.44730
 2018-Sep-03 22:53 N   23 39 49.274153 -86 41 04.46226
 2018-Sep-03 22:54 N   23 39 49.210854 -86 41 04.47722
 2018-Sep-03 22:55 N   23 39 49.147551 -86 41 04.49219
 2018-Sep-03 22:56 N   23 39 49.084243 -86 41 04.50715
 2018-Sep-03 22:57 N   23 39 49.020930 -86 41 04.52211
 2018-Sep-03 22:58 N   23 39 48.957614 -86 41 04.53707
 2018-Sep-03 22:59 N   23 39 48.894293 -86 41 04.55203
 2018-Sep-03 23:00 N   23 39 48.830968 -86 41 04.56699
 2018-Sep-03 23:01 N   23 39 48.767638 -86 41 04.58195
 2018-Sep-03 23:02 N   23 39 48.704304 -86 41 04.59690
 2018-Sep-03 23:03 N   23 39 48.640966 -86 41 04.61186
 2018-Sep-03 23:04 N   23 39 48.577623 -86 41 04.62682
 2018-Sep-03 23:05 N   23 39 48.514276 -86 41 04.64178
 2018-Sep-03 23:06 N   23 39 48.450924 -86 41 04.65673
 2018-Sep-03 23:07 N   23 39 48.387569 -86 41 04.67169
 2018-Sep-03 23:08 N   23 39 48.324209 -86 41 04.68664
 2018-Sep-03 23:09 N   23 39 48.260844 -86 41 04.70160
 2018-Sep-03 23:10 N   23 39 48.197475 -86 41 04.71655
 2018-Sep-03 23:11 N   23 39 48.134102 -86 41 04.73151
 2018-Sep-03 23:12 N   23 39 48.070724 -86 41 04.74646
 2018-Sep-03 23:13 N   23 39 48.007342 -86 41 04.76141
 2018-Sep-03 23:14 N   23 39 47.943956 -86 41 04.77636
 2018-Sep-03 23:15 N   23 39 47.880565 -86 41 04.79131
 2018-Sep-03 23:16 N   23 39 47.817170 -86 41 04.80626
 2018-Sep-03 23:17 N   23 39 47.753771 -86 41 04.82121
 2018-Sep-03 23:18 N   23 39 47.690367 -86 41 04.83616
 2018-Sep-03 23:19 N   23 39 47.626959 -86 41 04.85111
 2018-Sep-03 23:20 N   23 39 47.563546 -86 41 04.86606
 2018-Sep-03 23:21 A   23 39 47.500129 -86 41 04.88100
 2018-Sep-03 23:22 A   23 39 47.436708 -86 41 04.89595
 2018-Sep-03 23:23 A   23 39 47.373282 -86 41 04.91090
 2018-Sep-03 23:24 A   23 39 47.309852 -86 41 04.92584
 2018-Sep-03 23:25 A   23 39 47.246417 -86 41 04.94078
 2018-Sep-03 23:26 A   23 39 47.182978 -86 41 04.95573
 2018-Sep-03 23:27 A   23 39 47.119535 -86 41 04.97067
 2018-Sep-03 23:28 A   23 39 47.056088 -86 41 04.98561
 2018-Sep-03 23:29 A   23 39 46.992635 -86 41 05.00055
 2018-Sep-03 23:30 A   23 39 46.929179 -86 41 05.01549
 2018-Sep-03 23:31 A   23 39 46.865718 -86 41 05.03043
 2018-Sep-03 23:32 A   23 39 46.802253 -86 41 05.04536
 2018-Sep-03 23:33 A   23 39 46.738783 -86 41 05.06030
 2018-Sep-03 23:34 A   23 39 46.675309 -86 41 05.07524
 2018-Sep-03 23:35 A   23 39 46.611831 -86 41 05.09017
 2018-Sep-03 23:36 A   23 39 46.548348 -86 41 05.10510
 2018-Sep-03 23:37 A   23 39 46.484861 -86 41 05.12004
 2018-Sep-03 23:38 A   23 39 46.421370 -86 41 05.13497
 2018-Sep-03 23:39 A   23 39 46.357874 -86 41 05.14990
 2018-Sep-03 23:40 A   23 39 46.294373 -86 41 05.16483
 2018-Sep-03 23:41 A   23 39 46.230869 -86 41 05.17976
 2018-Sep-03 23:42 A   23 39 46.167360 -86 41 05.19468
 2018-Sep-03 23:43 A   23 39 46.103846 -86 41 05.20961
 2018-Sep-03 23:44 A   23 39 46.040328 -86 41 05.22453
 2018-Sep-03 23:45 A   23 39 45.976806 -86 41 05.23946
 2018-Sep-03 23:46 A   23 39 45.913280 -86 41 05.25438
 2018-Sep-03 23:47 A   23 39 45.849749 -86 41 05.26930
 2018-Sep-03 23:48 A   23 39 45.786213 -86 41 05.28422
 2018-Sep-03 23:49     23 39 45.722674 -86 41 05.29914
 2018-Sep-03 23:50     23 39 45.659130 -86 41 05.31406
 2018-Sep-03 23:51     23 39 45.595581 -86 41 05.32898
 2018-Sep-03 23:52     23 39 45.532028 -86 41 05.34389
 2018-Sep-03 23:53     23 39 45.468471 -86 41 05.35881
 2018-Sep-03 23:54     23 39 45.404910 -86 41 05.37372
 2018-Sep-03 23:55     23 39 45.341344 -86 41 05.38863
 2018-Sep-03 23:56     23 39 45.277773 -86 41 05.40354
 2018-Sep-03 23:57     23 39 45.214199 -86 41 05.41845
 2018-Sep-03 23:58     23 39 45.150620 -86 41 05.43336
 2018-Sep-03 23:59     23 39 45.087036 -86 41 05.44827
 2018-Sep-04 00:00     23 39 45.023449 -86 41 05.46317
 2018-Sep-04 00:01     23 39 44.959856 -86 41 05.47808
 2018-Sep-04 00:02     23 39 44.896260 -86 41 05.49298
 2018-Sep-04 00:03     23 39 44.832659 -86 41 05.50788
 2018-Sep-04 00:04     23 39 44.769054 -86 41 05.52278
 2018-Sep-04 00:05     23 39 44.705445 -86 41 05.53768
 2018-Sep-04 00:06     23 39 44.641831 -86 41 05.55257
 2018-Sep-04 00:07     23 39 44.578213 -86 41 05.56747
 2018-Sep-04 00:08     23 39 44.514590 -86 41 05.58236
 2018-Sep-04 00:09     23 39 44.450963 -86 41 05.59726
 2018-Sep-04 00:10     23 39 44.387332 -86 41 05.61215
 2018-Sep-04 00:11     23 39 44.323697 -86 41 05.62704
 2018-Sep-04 00:12     23 39 44.260057 -86 41 05.64192
 2018-Sep-04 00:13     23 39 44.196413 -86 41 05.65681
 2018-Sep-04 00:14     23 39 44.132764 -86 41 05.67169
 2018-Sep-04 00:15     23 39 44.069112 -86 41 05.68658
 2018-Sep-04 00:16     23 39 44.005454 -86 41 05.70146
 2018-Sep-04 00:17     23 39 43.941793 -86 41 05.71634
 2018-Sep-04 00:18     23 39 43.878127 -86 41 05.73122
 2018-Sep-04 00:19     23 39 43.814457 -86 41 05.74609
 2018-Sep-04 00:20     23 39 43.750783 -86 41 05.76097
 2018-Sep-04 00:21     23 39 43.687105 -86 41 05.77584
 2018-Sep-04 00:22     23 39 43.623422 -86 41 05.79071
 2018-Sep-04 00:23     23 39 43.559734 -86 41 05.80558
 2018-Sep-04 00:24     23 39 43.496043 -86 41 05.82045
 2018-Sep-04 00:25     23 39 43.432347 -86 41 05.83532
 2018-Sep-04 00:26     23 39 43.368647 -86 41 05.85018
 2018-Sep-04 00:27     23 39 43.304943 -86 41 05.86504
 2018-Sep-04 00:28     23 39 43.241235 -86 41 05.87991
 2018-Sep-04 00:29     23 39 43.177522 -86 41 05.89476
 2018-Sep-04 00:30     23 39 43.113805 -86 41 05.90962
 2018-Sep-04 00:31     23 39 43.050083 -86 41 05.92448
 2018-Sep-04 00:32     23 39 42.986358 -86 41 05.93933
 2018-Sep-04 00:33     23 39 42.922628 -86 41 05.95418
 2018-Sep-04 00:34     23 39 42.858894 -86 41 05.96903
 2018-Sep-04 00:35     23 39 42.795156 -86 41 05.98388
 2018-Sep-04 00:36     23 39 42.731413 -86 41 05.99873
 2018-Sep-04 00:37     23 39 42.667667 -86 41 06.01357
 2018-Sep-04 00:38     23 39 42.603916 -86 41 06.02841
 2018-Sep-04 00:39     23 39 42.540161 -86 41 06.04325
 2018-Sep-04 00:40     23 39 42.476401 -86 41 06.05809
